CAS-2T & KS-1Q          
1 41847U 16066G   20136.85292703 -.00000007  00000-0  10086-4 0  9998
2 41847  98.6569 187.0300 0365042 326.2421  31.5992 14.38062645184739
NAYIF-1 (EO-88)         
1 42017U 17008BX  20136.83808667  .00001087  00000-0  44488-4 0  9996
2 42017  97.3614 204.8742 0007981  81.3430 278.8713 15.26415616180571
MAX VALIER SAT          
1 42778U 17036P   20136.87687747  .00000681  00000-0  32205-4 0  9992
2 42778  97.3075 191.4094 0013639 131.9309 228.3093 15.22565752160775
RADFXSAT (FOX-1B)       
1 43017U 17073E   20136.71060090  .00000238  00000-0  23803-4 0  9991
2 43017  97.7243  50.2105 0257590 156.7484 204.5633 14.78903976134325
FOX-1D (AO-92)          
1 43137U 18004AC  20136.85374467  .00000737  00000-0  33312-4 0  9990
2 43137  97.4470 208.2334 0009683 160.5628 199.5981 15.24065786130085
DIWATA-2B               
1 43678U 18084H   20136.87236993 -.00000327  00000-0 -26833-4 0  9998
2 43678  97.8785 255.2857 0008575 289.0623  70.9681 14.91623327 84161
ES'HAIL 2               
1 43700U 18090A   20136.82536934  .00000137  00000-0  00000-0 0  9995
2 43700   0.0049 104.3734 0001315 333.9417 118.6051  1.00274501  5389
FOX-1CLIFF (AO-95)      
1 43770U 18099N   20136.84572075 -.00000183  00000-0 -11516-4 0  9990
2 43770  97.7069 208.7918 0013355 309.8956  50.1090 14.94970542 79043
ITASAT 1                
1 43786U 18099AE  20136.78314202 -.00000222  00000-0 -14892-4 0  9990
2 43786  97.7085 209.1264 0013926 302.9801  57.0081 14.95311946 79059
JY1SAT (JO-97)          
1 43803U 18099AX  20136.66768028  .00000372  00000-0  38795-4 0  9998
2 43803  97.7042 208.8395 0013753 303.4584  56.5321 14.95483065 79036
PSAT2 (NO-104)          
1 44354U 19036R   20136.65955870  .00006239  00000-0  88406-4 0  9996
2 44354  28.5316 235.9083 0365666 320.9218  36.5483 15.03104770 48889
BRICSAT2 (NO-103)       
1 44355U 19036S   20136.64806335  .00010873  00000-0  15080-3 0  9993
2 44355  28.5310 228.9842 0345902 332.2096  26.0401 15.08102731 48952
JAISAT-1                
1 44419U 19038F   20136.87900682  .00000510  00000-0  32752-4 0  9994
2 44419  97.5359  98.8634 0020080 241.1272 118.7944 15.12736800 47670
DUCHIFAT-3              
1 44854U 19089C   20136.78969672  .00000266  00000-0  27907-4 0  9991
2 44854  36.9661 291.3855 0006977 166.8076 193.2850 14.99048412 23391
RS-44 & BREEZE-KM R/B   
1 44909U 19096E   20136.83426014  .00000009  00000-0  00000-0 0  9990
2 44909  82.5229  16.9894 0216790 303.1199  54.9261 12.79707022 18018
ORBITAL FACTORY 2 (OF-2)
1 45113U 19071C   20136.37438797  .00000690  00000-0  32764-4 0  9993
2 45113  51.6430 163.3296 0012702 299.7969  60.1749 15.33235652 16052
HUSKYSAT-1              
1 45119U 19071J   20136.35759652  .00000835  00000-0  36956-4 0  9991
2 45119  51.6427 163.2183 0011962 296.0931  63.8819 15.33464460 16042
